GLOBALSTAR M024         
1 25883U 99043A   25032.26052089 -.00000070  00000+0 -19073-3 0  9996
2 25883  52.0056 327.3230 0000984 232.4678 285.9346 11.10166324 99762
GLOBALSTAR M027         
1 25884U 99043B   25032.36533158 -.00000023  00000+0  15377-2 0  9998
2 25884  52.0231  41.2164 0021542 132.2954 227.9669 11.04371031126236
GLOBALSTAR M054         
1 25885U 99043C   25032.46446317 -.00000073  00000+0 -39581-4 0  9991
2 25885  52.0112 191.0730 0004735 310.0501  61.4833 11.39216315103585
GLOBALSTAR M053         
1 25886U 99043D   25032.74375042 -.00000054  00000+0  42714-3 0  9998
2 25886  51.9977 129.9835 0003663 195.7261 335.4883 11.27662621104165
GLOBALSTAR M058         
1 25907U 99049A   25033.18700132  .00000056  00000+0  18942-2 0  9995
2 25907  51.9938 109.6603 0001706  39.6099 320.4860 11.93196702136636
GLOBALSTAR M050         
1 25908U 99049B   25032.72613269 -.00000139  00000+0 -57697-3 0  9994
2 25908  51.9984 128.6863 0009985 122.1428  44.7876 12.07448258131829
GLOBALSTAR M033         
1 25909U 99049C   25033.19916511 -.00000167  00000+0 -72183-3 0  9991
2 25909  51.9943   8.5433 0013218 346.3588  13.6900 12.20290168151987
GLOBALSTAR M055         
1 25910U 99049D   25033.13513662 -.00000069  00000+0  21705-3 0  9991
2 25910  52.0039  26.0459 0006947 210.0092 150.0362 12.29420034151892
